ONEWEB-0094             
1 45450U 20020AC  25322.25224997  .00000070  00000+0  14608-3 0  9994
2 45450  87.9143  47.7781 0001718 102.9307 257.2017 13.17651720278537
ONEWEB-0087             
1 45451U 20020AD  25322.29957272 -.00000178  00000+0 -53910-3 0  9998
2 45451  87.8881  63.0068 0001835 112.1146 248.0177 13.11414011274949
ONEWEB-0082             
1 45452U 20020AE  25322.29632117 -.00000062  00000+0 -21115-3 0  9991
2 45452  87.8878  63.0328 0001786 109.6156 250.5165 13.11413834275030
ONEWEB-0050             
1 45453U 20020AF  25322.38606964 -.00008520  00000+0 -90312-3 0  9995
2 45453  88.9216 261.9673 0004970  49.8819 310.2844 14.89332753308996
ONEWEB-0034             
1 45454U 20020AG  25322.24121932 -.00000449  00000+0 -13029-2 0  9999
2 45454  87.8872  63.0606 0001662 103.3505 256.7808 13.11418357274943
ONEWEB-0060             
1 45455U 20020AH  25322.36500326  .00000189  00000+0  49848-3 0  9999
2 45455  87.8857  63.0556 0002463 123.7343 236.4020 13.11416507274910
ONEWEB-0086             
1 45456U 20020AJ  25322.34381400  .00000405  00000+0  11068-2 0  9991
2 45456  87.8870  63.0367 0002410 104.7028 255.4367 13.11416727274972
ONEWEB-0088             
1 45457U 20020AK  25322.24545387 -.00000273  00000+0 -80590-3 0  9999
2 45457  87.8884  63.0091 0001530 106.0400 254.0896 13.11417094274894
